NORAD_CAT_ID,OBJECT_NAME,OBJECT_TYPE,EPOCH,MEAN_MOTION,ECCENTRICITY,INCLINATION,RA_OF_ASC_NODE,ARG_OF_PERICENTER,MEAN_ANOMALY,BSTAR,MEAN_MOTION_DOT,MEAN_MOTION_DDOT,TLE_LINE0,TLE_LINE1,TLE_LINE2,SEMIMAJOR_AXIS,PERIOD,APOGEE,PERIGEE,DECAYED
54061.0,STARLINK-5209,PAYLOAD,2023-01-04 14:40:51,15.73189605,0.0002182,53.2165,129.5297,40.0561,320.0619,6.2921e-05,8.215e-05,0.0,0 STARLINK-5209,1 54061U 22136L   23004.61170297  .00008215  00000-0  62921-4 0  9992,2 54061  53.2165 129.5297 0002182  40.0561 320.0619 15.73189605 12508,6727.925,91.534,351.2580000000001,348.32199999999995,0.0
54061.0,STARLINK-5209,PAYLOAD,2023-01-05 07:27:07,15.73196298,0.0002234,53.2163,126.0703,37.1165,323.0009,-3.085e-05,-4.948e-05,0.0,0 STARLINK-5209,1 54061U 22136L   23005.31050255 -.00004948  00000-0 -30850-4 0  9998,2 54061  53.2163 126.0703 0002234  37.1165 323.0009 15.73196298 12619,6727.906,91.533,351.274,348.26800000000014,0.0
54061.0,STARLINK-5209,PAYLOAD,2023-01-05 10:30:02,15.73262157,0.0001993,53.2161,125.4417,35.0318,325.0833,0.00011838,0.00016069,0.0,0 STARLINK-5209,1 54061U 22136L   23005.43753393  .00016069  00000-0  11838-3 0  9993,2 54061  53.2161 125.4417 0001993  35.0318 325.0833 15.73262157 12637,6727.718000000003,91.53,350.9240000000001,348.242,0.0
54061.0,STARLINK-5209,PAYLOAD,2023-01-06 06:19:17,15.73209944,0.000226,53.2173,121.3562,39.3622,320.7562,1.0662e-05,8.76e-06,0.0,0 STARLINK-5209,1 54061U 22136L   23006.26339425  .00000876  00000-0  10662-4 0  9995,2 54061  53.2173 121.3562 0002260  39.3622 320.7562 15.73209944 12769,6727.866999999998,91.533,351.2519999999999,348.211,0.0
54061.0,STARLINK-5209,PAYLOAD,2023-01-06 16:59:38,15.73215888,0.0002227,53.218,119.1558,35.1304,324.9862,-6.5939e-06,-1.548e-05,0.0,0 STARLINK-5209,1 54061U 22136L   23006.70808208 -.00001548  00000-0 -65939-5 0  9991,2 54061  53.2180 119.1558 0002227  35.1304 324.9862 15.73215888 12359,6727.85,91.532,351.213,348.217,0.0
54061.0,STARLINK-5209,PAYLOAD,2023-01-07 00:37:01,15.73224925,0.0002462,53.2171,117.5836,35.3653,324.753,-6.6284e-06,-1.553e-05,0.0,0 STARLINK-5209,1 54061U 22136L   23007.02571290 -.00001553  00000-0 -66284-5 0  9995,2 54061  53.2171 117.5836 0002462  35.3653 324.7530 15.73224925 12880,6727.824000000001,91.532,351.346,348.033,0.0
54061.0,STARLINK-5209,PAYLOAD,2023-01-07 03:39:58,15.73230551,0.0002643,53.2165,116.9569,31.5588,328.559,-2.0496e-05,-3.502e-05,0.0,0 STARLINK-5209,1 54061U 22136L   23007.15276391 -.00003502  00000-0 -20496-4 0  9993,2 54061  53.2165 116.9569 0002643  31.5588 328.5590 15.73230551 12425,6727.808000000001,91.531,351.451,347.895,0.0
54061.0,STARLINK-5209,PAYLOAD,2023-01-07 08:14:25,15.73212831,0.0001789,53.2168,116.0111,21.743,338.3666,-4.8696e-05,-7.453e-05,0.0,0 STARLINK-5209,1 54061U 22136L   23007.34334912 -.00007453  00000-0 -48696-4 0  9999,2 54061  53.2168 116.0111 0001789  21.7430 338.3666 15.73212831 12939,6727.859,91.532,350.927,348.52,0.0
54061.0,STARLINK-5209,PAYLOAD,2023-01-08 02:32:13,15.7316905,0.0001438,53.2187,112.2373,19.8529,340.2547,-7.898100000000001e-05,-0.00011674,0.0,0 STARLINK-5209,1 54061U 22136L   23008.10571016 -.00011674  00000-0 -78981-4 0  9992,2 54061  53.2187 112.2373 0001438  19.8529 340.2547 15.73169050 13054,6727.983,91.535,350.816,348.881,0.0
54061.0,STARLINK-5209,PAYLOAD,2023-01-08 08:38:08,15.7320111,0.0002323,53.2172,110.982,26.4868,333.6269999999999,2.7561e-05,3.248e-05,0.0,0 STARLINK-5209,1 54061U 22136L   23008.35982014  .00003248  00000-0  27561-4 0  9997,2 54061  53.2172 110.9820 0002323  26.4868 333.6270 15.73201110 13091,6727.892,91.533,351.32,348.194,0.0
54061.0,STARLINK-5209,PAYLOAD,2023-01-08 16:15:32,15.73197441,0.0002502,53.2171,109.4081,26.7516,333.3633,0.00016256,0.00022253,0.0,0 STARLINK-5209,1 54061U 22136L   23008.67745379  .00022253  00000-0  16256-3 0  9998,2 54061  53.2171 109.4081 0002502  26.7516 333.3633 15.73197441 13141,6727.901999999999,91.533,351.451,348.084,0.0
54061.0,STARLINK-5209,PAYLOAD,2023-01-09 09:01:48,15.73219584,0.0002026,53.216,105.9524,14.3998,345.7079,0.00012173,0.00016512,0.0,0 STARLINK-5209,1 54061U 22136L   23009.37625437  .00016512  00000-0  12173-3 0  9993,2 54061  53.2160 105.9524 0002026  14.3998 345.7079 15.73219584 12772,6727.839,91.532,351.06699999999995,348.341,0.0
54061.0,STARLINK-5209,PAYLOAD,2023-01-09 15:07:44,15.73198808,0.0002565,53.2163,104.6949,18.1877,341.9234,4.609e-05,5.851e-05,0.0,0 STARLINK-5209,1 54061U 22136L   23009.63037435  .00005851  00000-0  46090-4 0  9997,2 54061  53.2163 104.6949 0002565  18.1877 341.9234 15.73198808 13292,6727.899,91.533,351.4890000000001,348.038,0.0
54061.0,STARLINK-5209,PAYLOAD,2023-01-10 09:25:31,15.73185384,0.0003179,53.2149,100.9224,22.92,337.1961,-3.2398000000000004e-05,-5.166e-05,0.0,0 STARLINK-5209,1 54061U 22136L   23010.39272116 -.00005166  00000-0 -32398-4 0  9996,2 54061  53.2149 100.9224 0003179  22.9200 337.1961 15.73185384 13419,6727.937,91.534,351.941,347.663,0.0
54061.0,STARLINK-5209,PAYLOAD,2023-01-10 12:28:28,15.73198552,0.00026,53.2168,100.2929,17.2588,342.852,-1.5368e-05,-2.778e-05,0.0,0 STARLINK-5209,1 54061U 22136L   23010.51976896 -.00002778  00000-0 -15368-4 0  9990,2 54061  53.2168 100.2929 0002600  17.2588 342.8520 15.73198552 13436,6727.899,91.533,351.514,348.015,0.0
54061.0,STARLINK-5209,PAYLOAD,2023-01-10 13:59:56,15.73212744,0.0002617,53.2173,99.9792,15.2952,344.8147,7.0903e-06,3.73e-06,0.0,0 STARLINK-5209,1 54061U 22136L   23010.58329006  .00000373  00000-0  70903-5 0  9996,2 54061  53.2173  99.9792 0002617  15.2952 344.8147 15.73212744 13443,6727.859,91.532,351.485,347.963,0.0
54061.0,STARLINK-5209,PAYLOAD,2023-01-11 05:14:43,15.73230525,0.000276,53.2166,96.8361,14.4656,345.6443,3.8823e-06,-7.7e-07,0.0,0 STARLINK-5209,1 54061U 22136L   23011.21855588 -.00000077  00000-0  38823-5 0  9993,2 54061  53.2166  96.8361 0002760  14.4656 345.6443 15.73230525 13540,6727.808000000001,91.531,351.53,347.816,0.0
54061.0,STARLINK-5209,PAYLOAD,2023-01-11 11:20:38,15.73228409,0.000294,53.2165,95.5785,14.2302,345.88,8.7153e-06,6.02e-06,0.0,0 STARLINK-5209,1 54061U 22136L   23011.47266735  .00000602  00000-0  87153-5 0  9994,2 54061  53.2165  95.5785 0002940  14.2302 345.8800 15.73228409 13100,6727.814,91.532,351.657,347.701,0.0
54061.0,STARLINK-5209,PAYLOAD,2023-01-12 04:06:57,15.73192412,0.0003256,53.2164,92.1209,16.7519,343.3608,1.2086e-05,1.073e-05,0.0,0 STARLINK-5209,1 54061U 22136L   23012.17149821  .00001073  00000-0  12086-4 0  9993,2 54061  53.2164  92.1209 0003256  16.7519 343.3608 15.73192412 13698,6727.917,91.534,351.972,347.591,0.0
54061.0,STARLINK-5209,PAYLOAD,2023-01-12 14:47:17,15.73216164,0.0003198,53.2162,89.9201,14.2566,345.8544,3.8708e-05,4.817e-05,0.0,0 STARLINK-5209,1 54061U 22136L   23012.61617890  .00004817  00000-0  38708-4 0  9996,2 54061  53.2162  89.9201 0003198  14.2566 345.8544 15.73216164 13767,6727.849,91.532,351.866,347.5630000000001,0.0
54061.0,STARLINK-5209,PAYLOAD,2023-01-12 22:24:45,15.73150621,0.0002646,53.2164,88.3486,19.5594,340.5527,5.3327e-05,6.854e-05,0.0,0 STARLINK-5209,1 54061U 22136L   23012.93385728  .00006854  00000-0  53327-4 0  9990,2 54061  53.2164  88.3486 0002646  19.5594 340.5527 15.73150621 13817,6728.036,91.536,351.681,348.121,0.0
54061.0,STARLINK-5209,PAYLOAD,2023-01-13 13:39:32,15.73180535,0.0002935,53.2159,85.2047,21.3158,338.7984,-2.218e-05,-3.732e-05,0.0,0 STARLINK-5209,1 54061U 22136L   23013.56912429 -.00003732  00000-0 -22180-4 0  9991,2 54061  53.2159  85.2047 0002935  21.3158 338.7984 15.73180535 13912,6727.951,91.534,351.79,347.841,0.0
54061.0,STARLINK-5209,PAYLOAD,2023-01-13 21:16:55,15.73201724,0.0002966,53.2158,83.6325,16.8309,343.2809,2.4825e-06,-2.74e-06,0.0,0 STARLINK-5209,1 54061U 22136L   23013.88675413 -.00000274  00000-0  24825-5 0  9991,2 54061  53.2158  83.6325 0002966  16.8309 343.2809 15.73201724 13486,6727.89,91.533,351.751,347.76,0.0
54061.0,STARLINK-5209,PAYLOAD,2023-01-14 03:22:50,15.73208182,0.0002686999999999,53.2164,82.3748,21.8194,338.29400000000004,-8.8989e-06,-1.872e-05,0.0,0 STARLINK-5209,1 54061U 22136L   23014.14086707 -.00001872  00000-0 -88989-5 0  9990,2 54061  53.2164  82.3748 0002687  21.8194 338.2940 15.73208182 14000,6727.871999999999,91.533,351.545,347.92900000000003,0.0
54061.0,STARLINK-5209,PAYLOAD,2023-01-14 21:40:37,15.73197551,0.0002501,53.2157,78.6023,32.4177,327.6997,3.6118e-07,-5.71e-06,0.0,0 STARLINK-5209,1 54061U 22136L   23014.90321054 -.00000571  00000-0  36118-6 0  9993,2 54061  53.2157  78.6023 0002501  32.4177 327.6997 15.73197551 14124,6727.901999999999,91.533,351.45,348.085,0.0
54061.0,STARLINK-5209,PAYLOAD,2023-01-15 08:20:59,15.73204511,0.0002605,53.2159,76.4025,38.3222,321.7983,3.0323e-05,3.637e-05,0.0,0 STARLINK-5209,1 54061U 22136L   23015.34790726  .00003637  00000-0  30323-4 0  9993,2 54061  53.2159  76.4025 0002605  38.3222 321.7983 15.73204511 13714,6727.882,91.533,351.5,347.995,0.0
54061.0,STARLINK-5209,PAYLOAD,2023-01-15 20:32:50,15.7318817,0.0002663,53.2162,73.8872,44.7756,315.3479,4.6391e-06,2.9e-07,0.0,0 STARLINK-5209,1 54061U 22136L   23015.85614347  .00000029  00000-0  46391-5 0  9998,2 54061  53.2162  73.8872 0002663  44.7756 315.3479 15.73188170 14279,6727.929,91.534,351.586,348.00199999999995,0.0
54061.0,STARLINK-5209,PAYLOAD,2023-01-16 07:13:36,15.72722475,0.0002501,53.2161,71.6879,16.5374,343.5727,-0.00071952,-0.00098424,0.0,0 STARLINK-5209,1 54061U 22136L   23016.30112159 -.00098424  00000-0 -71952-3 0  9990,2 54061  53.2161  71.6879 0002501  16.5374 343.5727 15.72722475 14343,6729.257,91.561,352.805,349.439,0.0
54061.0,STARLINK-5209,PAYLOAD,2023-01-16 11:48:21,15.72387874,0.0001682,53.2161,70.7463,78.4013,281.7196,-0.0012196,-0.00162787,0.0,0 STARLINK-5209,1 54061U 22136L   23016.49192114 -.00162787  00000-0 -12196-2 0  9997,2 54061  53.2161  70.7463 0001682  78.4013 281.7196 15.72387874 14374,6730.212,91.58,353.209,350.945,0.0
